NORAD_CAT_ID,OBJECT_NAME,OBJECT_TYPE,EPOCH,MEAN_MOTION,ECCENTRICITY,INCLINATION,RA_OF_ASC_NODE,ARG_OF_PERICENTER,MEAN_ANOMALY,BSTAR,MEAN_MOTION_DOT,MEAN_MOTION_DDOT,TLE_LINE0,TLE_LINE1,TLE_LINE2,SEMIMAJOR_AXIS,PERIOD,APOGEE,PERIGEE,DECAYED
53719.0,STARLINK-4644,PAYLOAD,2022-11-27 22:00:00,15.73231386,0.0003293,53.2145,215.383,6.8125,193.0917,-0.00041375,-0.00058386,0.0,0 STARLINK-4644,1 53719U 22107V   22331.91667824 -.00058386  00000-0 -41375-3 0  9996,2 53719  53.2145 215.3830 0003293   6.8125 193.0917 15.73231386  1301,6727.806,91.531,351.886,347.455,0.0
53719.0,STARLINK-4644,PAYLOAD,2022-11-28 08:00:01,15.73209825,0.0003293,53.2141,213.3206,6.3954,34.6792,-0.0006098,-0.00085406,0.0,0 STARLINK-4644,1 53719U 22107V   22332.33334491 -.00085406  00000-0 -60980-3 0  9990,2 53719  53.2141 213.3206 0003293   6.3954  34.6792 15.73209825 13405,6727.8669999999975,91.533,351.9480000000001,347.517,0.0
53719.0,STARLINK-4644,PAYLOAD,2022-11-28 22:00:01,15.73195443,0.000332,53.2142,210.4346,10.3046,96.4081,0.00021188,0.00029218,0.0,0 STARLINK-4644,1 53719U 22107V   22332.91668981  .00029218  00000-0  21188-3 0  9992,2 53719  53.2142 210.4346 0003320  10.3046  96.4081 15.73195443  1300,6727.908,91.533,352.00699999999995,347.54,0.0
53719.0,STARLINK-4644,PAYLOAD,2022-11-29 14:00:01,15.73216804,0.0003175,53.2147,207.1333,10.5112,274.1155,-0.00020137,-0.00028816,0.0,0 STARLINK-4644,1 53719U 22107V   22333.58335648 -.00028816  00000-0 -20137-3 0  9995,2 53719  53.2147 207.1333 0003175  10.5112 274.1155 15.73216804  1300,6727.847,91.532,351.848,347.576,0.0
53719.0,STARLINK-4644,PAYLOAD,2022-11-29 22:00:00,15.73183043,0.0003432,53.2149,205.4857,13.562,359.9417,0.00023705,0.0003276,0.0,0 STARLINK-4644,1 53719U 22107V   22333.91667824  .00032760  00000-0  23705-3 0  9991,2 53719  53.2149 205.4857 0003432  13.5620 359.9417 15.73183043 13659,6727.944,91.534,352.11800000000005,347.499,0.0
53719.0,STARLINK-4644,PAYLOAD,2022-11-30 14:00:01,15.7317812,0.0003143999999999,53.2149,202.1848,10.937,180.5137,0.00067228,0.00094727,0.0,0 STARLINK-4644,1 53719U 22107V   22334.58335648  .00094727  00000-0  67228-3 0  9990,2 53719  53.2149 202.1848 0003144  10.9370 180.5137 15.73178120  1302,6727.958000000001,91.534,351.93800000000016,347.707,0.0
53719.0,STARLINK-4644,PAYLOAD,2022-11-30 22:00:00,15.73334756,0.0003191999999999,53.2159,200.5386,8.5231,271.7879,-0.0022237,-0.00303599,0.0,0 STARLINK-4644,1 53719U 22107V   22334.91667824 -.00303599  00000-0 -22237-2 0  9993,2 53719  53.2159 200.5386 0003192   8.5231 271.7879 15.73334756 13818,6727.511,91.525,351.523,347.22900000000016,0.0
53719.0,STARLINK-4644,PAYLOAD,2022-12-01 06:00:00,15.73220807,0.000347,53.2154,198.8884,9.6377,359.5915,-0.00064171,-0.00089843,0.0,0 STARLINK-4644,1 53719U 22107V   22335.25001157 -.00089843  00000-0 -64171-3 0  9999,2 53719  53.2154 198.8884 0003470   9.6377 359.5915 15.73220807 13869,6727.8359999999975,91.532,352.035,347.366,0.0
53719.0,STARLINK-4644,PAYLOAD,2022-12-01 14:00:01,15.73168942,0.000325,53.2154,197.2362,14.3912,83.7834,0.00067035,0.00094413,0.0,0 STARLINK-4644,1 53719U 22107V   22335.58334491  .00094413  00000-0  67035-3 0  9994,2 53719  53.2154 197.2362 0003250  14.3912  83.7834 15.73168942  1300,6727.984,91.535,352.035,347.662,0.0
53719.0,STARLINK-4644,PAYLOAD,2022-12-01 22:00:00,15.73224293,0.0003509,53.2154,195.5888,13.5646,173.5261,0.00028276,0.00039299,0.0,0 STARLINK-4644,1 53719U 22107V   22335.91667824  .00039299  00000-0  28276-3 0  9995,2 53719  53.2154 195.5888 0003509  13.5646 173.5261 15.73224293 13976,6727.826,91.532,352.052,347.33,0.0
53719.0,STARLINK-4644,PAYLOAD,2022-12-02 06:00:00,15.73286654,0.0003429,53.2154,193.9387,9.4657,266.5823,-0.0011211,-0.00155728,0.0,0 STARLINK-4644,1 53719U 22107V   22336.25001157 -.00155728  00000-0 -11211-2 0  9992,2 53719  53.2154 193.9387 0003429   9.4657 266.5823 15.73286654 14022,6727.648,91.528,351.82,347.206,0.0
53719.0,STARLINK-4644,PAYLOAD,2022-12-02 14:00:01,15.73209236,0.0003235,53.2154,192.2878,10.3015,354.7519,0.00034226,0.00047714,0.0,0 STARLINK-4644,1 53719U 22107V   22336.58334491  .00047714  00000-0  34226-3 0  9993,2 53719  53.2154 192.2878 0003235  10.3015 354.7519 15.73209236 14071,6727.869000000002,91.533,351.91,347.557,0.0
53719.0,STARLINK-4644,PAYLOAD,2022-12-02 22:00:00,15.7323302,0.0003467,53.215,190.6404,8.8908,85.146,-8.5481e-05,-0.00012624,0.0,0 STARLINK-4644,1 53719U 22107V   22336.91667824 -.00012624  00000-0 -85481-4 0  9993,2 53719  53.2150 190.6404 0003467   8.8908  85.1460 15.73233020  1304,6727.801,91.531,351.999,347.334,0.0
53719.0,STARLINK-4644,PAYLOAD,2022-12-03 08:00:01,15.7322512,0.0003344,53.2153,188.5769,8.6551,286.5868,-0.00067286,-0.0009414,0.0,0 STARLINK-4644,1 53719U 22107V   22337.33334491 -.00094140  00000-0 -67286-3 0  9996,2 53719  53.2153 188.5769 0003344   8.6551 286.5868 15.73225120 14195,6727.824000000001,91.532,351.93800000000016,347.439,0.0
53719.0,STARLINK-4644,PAYLOAD,2022-12-03 14:00:01,15.7316078,0.0003266,53.2154,187.3391,8.1695,263.7742,0.00036029,0.00050171,0.0,0 STARLINK-4644,1 53719U 22107V   22337.58334491  .00050171  00000-0  36029-3 0  9998,2 53719  53.2154 187.3391 0003266   8.1695 263.7742 15.73160780  1308,6728.007,91.535,352.069,347.675,0.0
53719.0,STARLINK-4644,PAYLOAD,2022-12-03 22:00:00,15.7316275,0.0003529,53.2153,185.6917,6.9311,353.9226,-2.8152e-05,-4.567e-05,0.0,0 STARLINK-4644,1 53719U 22107V   22337.91667824 -.00004567  00000-0 -28152-4 0  9993,2 53719  53.2153 185.6917 0003529   6.9311 353.9226 15.73162750  1314,6728.001,91.535,352.241,347.492,0.0
53719.0,STARLINK-4644,PAYLOAD,2022-12-04 14:00:01,15.7317857,0.0003371,53.2149,182.391,10.0592,168.5846,7.1545e-05,9.422e-05,0.0,0 STARLINK-4644,1 53719U 22107V   22338.58334491  .00009422  00000-0  71545-4 0  9995,2 53719  53.2149 182.3910 0003371  10.0592 168.5846 15.73178570  1302,6727.956,91.534,352.089,347.55300000000005,0.0
53719.0,STARLINK-4644,PAYLOAD,2022-12-04 22:00:00,15.73172406,0.0003614,53.2151,180.7443,8.6039,258.9514,0.00056002,0.0007864,0.0,0 STARLINK-4644,1 53719U 22107V   22338.91667824  .00078640  00000-0  56002-3 0  9999,2 53719  53.2151 180.7443 0003614   8.6039 258.9514 15.73172406  1305,6727.974,91.535,352.27,347.407,0.0
53719.0,STARLINK-4644,PAYLOAD,2022-12-05 06:00:00,15.73389169,0.0003224,53.2163,179.0936,352.216,4.2579,-0.0056558,-0.00735004,0.0,0 STARLINK-4644,1 53719U 22107V   22339.25001157 -.00735004  00000-0 -56558-2 0  9999,2 53719  53.2163 179.0936 0003224 352.2160   4.2579 15.73389169 14499,6727.356,91.522,351.39,347.052,0.0
53719.0,STARLINK-4644,PAYLOAD,2022-12-05 14:00:01,15.72828372,0.0003361,53.2168,177.4433,310.4637,134.9817,-0.006019,-0.0076117,0.0,0 STARLINK-4644,1 53719U 22107V   22339.58335648 -.00761170  00000-0 -60190-2 0  9990,2 53719  53.2168 177.4433 0003361 310.4637 134.9817 15.72828372  1300,6728.955,91.555,353.082,348.55800000000005,0.0
53719.0,STARLINK-4644,PAYLOAD,2022-12-05 19:44:32,15.72729206,0.0003188999999999,53.2154,176.2609,348.0106,12.0838,-0.00094202,-0.00128276,0.0,0 STARLINK-4644,1 53719U 22107V   22339.82259829 -.00128276  00000-0 -94202-3 0  9999,2 53719  53.2154 176.2609 0003189 348.0106  12.0838 15.72729206 14582,6729.238,91.561,353.249,348.957,0.0
53719.0,STARLINK-4644,PAYLOAD,2022-12-06 00:19:09,15.7252451,0.0003283,53.2154,175.3185,340.9021,19.1875,-0.0012975,-0.00173987,0.0,0 STARLINK-4644,1 53719U 22107V   22340.01330739 -.00173987  00000-0 -12975-2 0  9997,2 53719  53.2154 175.3185 0003283 340.9021  19.1875 15.72524510 14617,6729.821999999999,91.572,353.896,349.477,0.0
53719.0,STARLINK-4644,PAYLOAD,2022-12-06 12:31:52,15.716092000000002,0.0004911,53.2154,172.8077,291.5559,68.4937,-0.0028031,-0.0035356,0.0,0 STARLINK-4644,1 53719U 22107V   22340.52213865 -.00353560  00000-0 -28031-2 0  9990,2 53719  53.2154 172.8077 0004911 291.5559  68.4937 15.71609200 15161,6732.434,91.626,357.606,350.99300000000005,0.0
53719.0,STARLINK-4644,PAYLOAD,2022-12-06 14:03:31,15.71458132,0.0004682,53.2153,172.4938,299.3132,60.7419,-0.0030525,-0.00381241,0.0,0 STARLINK-4644,1 53719U 22107V   22340.58577578 -.00381241  00000-0 -30525-2 0  9998,2 53719  53.2153 172.4938 0004682 299.3132  60.7419 15.71458132 14705,6732.866,91.635,357.8830000000001,351.579,0.0
53719.0,STARLINK-4644,PAYLOAD,2022-12-06 22:00:00,15.69620098,0.0002718,53.2178,170.8652,287.9733,144.6962,-0.007644,-0.00835811,0.0,0 STARLINK-4644,1 53719U 22107V   22340.91667824 -.00835811  00000-0 -76440-2 0  9992,2 53719  53.2178 170.8652 0002718 287.9733 144.6962 15.69620098  1301,6738.121,91.742,361.817,358.155,0.0
53719.0,STARLINK-4644,PAYLOAD,2022-12-07 02:00:01,15.69968832,0.0005432,53.2134,170.0424,278.4299,16.7946,0.00029145,0.0003526999999999,0.0,0 STARLINK-4644,1 53719U 22107V   22341.08334491  .00035270  00000-0  29145-3 0  9992,2 53719  53.2134 170.0424 0005432 278.4299  16.7946 15.69968832 14788,6737.123000000001,91.722,362.648,355.329,0.0
53719.0,STARLINK-4644,PAYLOAD,2022-12-07 08:00:01,15.69997829,0.0005437,53.2138,168.8095,277.4712,351.5875,0.00051423,0.00062973,0.0,0 STARLINK-4644,1 53719U 22107V   22341.33334491  .00062973  00000-0  51423-3 0  9994,2 53719  53.2138 168.8095 0005437 277.4712 351.5875 15.69997829 14829,6737.04,91.72,362.568,355.242,0.0
53719.0,STARLINK-4644,PAYLOAD,2022-12-07 14:00:01,15.67066204,0.0004564,53.2177,167.5824,271.0075,329.9409,0.0046133,0.00534859,0.0,0 STARLINK-4644,1 53719U 22107V   22341.58334491  .00534859  00000-0  46133-2 0  9999,2 53719  53.2177 167.5824 0004564 271.0075 329.9409 15.67066204 14868,6745.44,91.891,370.384,364.226,0.0
53719.0,STARLINK-4644,PAYLOAD,2022-12-08 00:00:00,15.66714025,0.0001225,53.2173,165.5403,65.9626,7.4883,-0.0043876,-0.00446101,0.0,0 STARLINK-4644,1 53719U 22107V   22342.00001157 -.00446101  00000-0 -43876-2 0  9992,2 53719  53.2173 165.5403 0001225  65.9626   7.4883 15.66714025 14929,6746.451,91.912,369.142,367.489,0.0
